OBJECT_NAME,OBJECT_ID,EPOCH,MEAN_MOTION,ECCENTRICITY,INCLINATION,RA_OF_ASC_NODE,ARG_OF_PERICENTER,MEAN_ANOMALY,EPHEMERIS_TYPE,CLASSIFICATION_TYPE,NORAD_CAT_ID,ELEMENT_SET_NO,REV_AT_EPOCH,BSTAR,MEAN_MOTION_DOT,MEAN_MOTION_DDOT
LEMUR-2-ALISIA,2025-009DB,2026-06-04T18:00:01.880064,15.02581150,.000055,97.6971,238.0044,193.8622,166.2588,0,U,62706,999,9829,.69835E-3,.9239E-4,0
LEMUR-2-ROUNDTRIPPER,2025-009DG,2026-06-04T04:24:59.435136,15.03559606,.00041072,97.7228,237.8844,173.7535,186.3743,0,U,62711,999,7567,.75495807E-3,.10258E-3,0
LEMUR-2-MYNAMEISJEFF,2025-009DH,2026-06-04T10:46:11.062560,15.03581129,.00024327,97.7280,238.5214,203.8502,156.2611,0,U,62712,999,7571,.79556037E-3,.10819E-3,0
LEMUR-2-LEIA-PHILIP,2025-052AN,2026-06-04T05:43:37.969824,14.97273900,.00021933,97.6838,47.4066,270.2468,89.8503,0,U,63246,999,6673,.19224473E-3,.217E-4,0
LEMUR-2-LIA-MARTIN,2025-052AQ,2026-06-04T21:58:36.124032,14.97690281,.000203,97.6899,48.5290,186.5979,173.5217,0,U,63248,999,6684,.55879E-3,.649E-4,0
LEMUR-2-DELOITTE-1,2025-052BB,2026-06-04T16:33:36.484704,14.97506872,.0002117,97.6922,48.6365,118.0645,242.0792,0,U,63259,999,6682,.38755E-3,.4461E-4,0
LEMUR-2-EMERSONROSE,2025-052BD,2026-06-04T16:15:38.827008,14.98995914,.00028667,97.6915,49.1587,79.0066,281.1480,0,U,63261,999,6686,.33451308E-3,.3995E-4,0
LEMUR-2-MARACHE-FRAN,2025-052BE,2026-06-04T22:16:21.055008,14.99963161,.0006403,97.6940,49.6956,61.2484,298.9382,0,U,63262,999,6692,.60859E-3,.7509E-4,0
LEMUR-2-THEFALCONER,2025-052BG,2026-06-04T15:32:53.289600,14.97297056,.0003586,97.6871,48.2275,67.2356,292.9244,0,U,63264,999,6681,.45492084E-3,.5219E-4,0
LEMUR-2-UNTITLED-SC,2025-061A,2026-06-04T20:34:12.124128,15.13385500,.0017366,97.5635,131.3103,311.5939,48.3803,0,U,63351,999,6572,.24193E-3,.4265E-4,0
LEMUR-2-ESPERANZA,2025-061B,2026-06-05T03:58:23.882016,15.13480388,.0016917,97.5640,131.7070,309.8186,50.1556,0,U,63352,999,6577,.23557E-3,.4162E-4,0
LEMUR-2-KREMPEL-BRO2,2025-061C,2026-06-04T17:35:58.229376,15.13910230,.00177153,97.5689,131.7954,303.1121,56.8409,0,U,63353,999,6572,.26295906E-3,.4712E-4,0
LEMUR-2-THERMORAPTOR,2025-061D,2026-06-04T23:31:46.020000,15.13990128,.0017297,97.5693,132.1141,301.1537,58.7998,0,U,63354,999,6576,.24066E-3,.4315E-4,0
LEMUR-2-NEUROSPICY,2025-061E,2026-06-04T18:06:48.678048,15.14101189,.0015231,97.5618,131.5256,306.2312,53.7511,0,U,63355,999,6573,.27702E-3,.499E-4,0
LEMUR-2-TILLINFINITY,2025-061F,2026-06-04T17:29:22.704000,15.14689557,.00162768,97.5605,131.7817,293.0371,66.9144,0,U,63356,999,6575,.25097754E-3,.4592E-4,0
LEMUR-2-KREMPEL-BRO1,2025-061G,2026-06-04T04:07:44.311296,15.14489279,.00170332,97.5605,131.1482,296.4114,63.5370,0,U,63357,999,6566,.23409336E-3,.4255E-4,0
LEMUR-2-LANGER2SPACE,2025-061H,2026-06-04T17:23:27.115296,15.14192718,.00151861,97.5614,131.5162,304.7826,55.1975,0,U,63358,999,6573,.24221637E-3,.4365E-4,0
LEMUR-2-BALTO,2025-052BH,2026-06-04T15:29:49.599744,14.99945620,.00063217,97.6878,49.4042,89.4139,270.7809,0,U,63395,999,6688,.54129732E-3,.6668E-4,0
LEMUR-2-KRISH,2025-135AK,2026-06-05T00:51:50.554656,14.96089127,.000116,97.7731,270.9989,100.0219,260.1133,0,U,64561,999,5210,.52371E-3,.5831E-4,0
LEMUR-2-HUBBLE-4,2025-135AP,2026-06-04T20:57:14.211360,14.93163815,.0001916,97.7690,269.9300,13.3133,346.8136,0,U,64565,999,5203,.24045E-3,.2453E-4,0
LEMUR-2-SEJONG-2,2025-135BL,2026-06-05T03:17:09.800736,14.96598197,.000475,97.7681,271.2420,29.3460,330.8027,0,U,64586,999,5214,.57816E-3,.653E-4,0
LEMUR-2-HUBBLE-5,2025-135BT,2026-06-05T02:27:57.921408,14.94097559,.0006127,97.7708,270.7706,32.7763,327.3836,0,U,64840,999,5210,.15134E-3,.156E-4,0
LEMUR-2-KARENDARRELL,2025-135BU,2026-06-05T04:15:44.640864,14.99928901,.0008952,97.7674,272.4086,248.9793,111.0473,0,U,64841,999,5221,.6032E-3,.7436E-4,0
LEMUR-2-LUCILLE-ROSE,2025-135BV,2026-06-05T02:02:28.759776,14.99990484,.0010624,97.7774,272.3199,330.2200,29.8417,0,U,65403,999,4682,.69935E-3,.865E-4,0
LEMUR-2-AFFIE-WAUWIE,2025-248C,2026-06-01T11:37:59.795904,15.26700156,.00096998,45.3867,200.0340,347.2049,12.8593,0,U,66295,999,3219,.59909021E-3,.15776E-3,0
LEMUR-2-DEANANDMAEVE,2025-276N,2026-06-04T17:42:46.064160,15.19573072,.0006782,97.4216,229.4227,53.1081,307.0774,0,U,66678,999,2852,.38391E-3,.8107E-4,0
LEMUR-2-STAS-GORBUK,2025-276W,2026-06-04T19:34:28.563168,15.19243364,.000627,97.4244,229.5536,53.5145,306.6666,0,U,66686,999,2853,.34702E-3,.725E-4,0
LEMUR-2-TEODOR,2025-276DG,2026-06-04T17:55:53.008320,15.20909334,.0001731,97.4148,229.7069,125.7864,234.3532,0,U,66768,999,2855,.32344E-3,.7086E-4,0
LEMUR-2-LAILA,2025-276DQ,2026-06-04T17:20:54.841344,15.21128517,.0001386,97.4174,229.7960,147.7957,212.3364,0,U,66776,999,2855,.28833E-3,.635E-4,0
LEMUR-2-CELIJO-SB-PK,2025-276DW,2026-06-04T16:40:20.504064,14.99818241,.0008673,97.5287,226.8815,163.2293,196.9219,0,U,66781,999,2075,.65366E-3,.8044E-4,0
