LEMUR-2-ALISIA          
1 62706U 25009DB  26155.75002176  .00009239  00000+0  69835-3 0  9990
2 62706  97.6971 238.0044 0000550 193.8622 166.2588 15.02581150 98296
LEMUR-2-ROUNDTRIPPER    
1 62711U 25009DG  26155.18402124  .00010258  00000+0  75496-3 0  9993
2 62711  97.7228 237.8844 0004107 173.7535 186.3743 15.03559606 75670
LEMUR-2-MYNAMEISJEFF    
1 62712U 25009DH  26155.44873915  .00010819  00000+0  79556-3 0  9997
2 62712  97.7280 238.5214 0002432 203.8502 156.2611 15.03581129 75716
LEMUR-2-LEIA-PHILIP     
1 63246U 25052AN  26155.23863391  .00002170  00000+0  19224-3 0  9999
2 63246  97.6838  47.4066 0002193 270.2468  89.8503 14.97273900 66732
LEMUR-2-LIA-MARTIN      
1 63248U 25052AQ  26155.91569588  .00006490  00000+0  55879-3 0  9992
2 63248  97.6899  48.5290 0002030 186.5979 173.5217 14.97690281 66848
LEMUR-2-DELOITTE-1      
1 63259U 25052BB  26155.69000561  .00004461  00000+0  38755-3 0  9990
2 63259  97.6922  48.6365 0002117 118.0645 242.0792 14.97506872 66827
LEMUR-2-EMERSONROSE     
1 63261U 25052BD  26155.67753272  .00003995  00000+0  33451-3 0  9994
2 63261  97.6915  49.1587 0002866  79.0066 281.1480 14.98995914 66860
LEMUR-2-MARACHE-FRAN    
1 63262U 25052BE  26155.92802147  .00007509  00000+0  60859-3 0  9996
2 63262  97.6940  49.6956 0006403  61.2484 298.9382 14.99963161 66926
LEMUR-2-THEFALCONER     
1 63264U 25052BG  26155.64783900  .00005219  00000+0  45492-3 0  9994
2 63264  97.6871  48.2275 0003586  67.2356 292.9244 14.97297056 66813
LEMUR-2-UNTITLED-SC     
1 63351U 25061A   26155.85708477  .00004265  00000+0  24193-3 0  9995
2 63351  97.5635 131.3103 0017366 311.5939  48.3803 15.13385500 65728
LEMUR-2-ESPERANZA       
1 63352U 25061B   26156.16555419  .00004162  00000+0  23557-3 0  9996
2 63352  97.5640 131.7070 0016917 309.8186  50.1556 15.13480388 65778
LEMUR-2-KREMPEL-BRO2    
1 63353U 25061C   26155.73331284  .00004712  00000+0  26296-3 0  9995
2 63353  97.5689 131.7954 0017715 303.1121  56.8409 15.13910230 65725
LEMUR-2-THERMORAPTOR    
1 63354U 25061D   26155.98039375  .00004315  00000+0  24066-3 0  9991
2 63354  97.5693 132.1141 0017297 301.1537  58.7998 15.13990128 65760
LEMUR-2-NEUROSPICY      
1 63355U 25061E   26155.75473007  .00004990  00000+0  27702-3 0  9990
2 63355  97.5618 131.5256 0015231 306.2312  53.7511 15.14101189 65736
LEMUR-2-TILLINFINITY    
1 63356U 25061F   26155.72873500  .00004592  00000+0  25098-3 0  9994
2 63356  97.5605 131.7817 0016276 293.0371  66.9144 15.14689557 65756
LEMUR-2-KREMPEL-BRO1    
1 63357U 25061G   26155.17204064  .00004255  00000+0  23409-3 0  9997
2 63357  97.5605 131.1482 0017033 296.4114  63.5370 15.14489279 65666
LEMUR-2-LANGER2SPACE    
1 63358U 25061H   26155.72461939  .00004365  00000+0  24222-3 0  9991
2 63358  97.5614 131.5162 0015186 304.7826  55.1975 15.14192718 65731
LEMUR-2-BALTO           
1 63395U 25052BH  26155.64571296  .00006668  00000+0  54130-3 0  9990
2 63395  97.6878  49.4042 0006321  89.4139 270.7809 14.99945620 66882
LEMUR-2-KRISH           
1 64561U 25135AK  26156.03600179  .00005831  00000+0  52371-3 0  9991
2 64561  97.7731 270.9989 0001160 100.0219 260.1133 14.96089127 52104
LEMUR-2-HUBBLE-4        
1 64565U 25135AP  26155.87308115  .00002453  00000+0  24045-3 0  9995
2 64565  97.7690 269.9300 0001916  13.3133 346.8136 14.93163815 52038
LEMUR-2-SEJONG-2        
1 64586U 25135BL  26156.13691899  .00006530  00000+0  57816-3 0  9994
2 64586  97.7681 271.2420 0004750  29.3460 330.8027 14.96598197 52141
LEMUR-2-HUBBLE-5        
1 64840U 25135BT  26156.10275372  .00001560  00000+0  15134-3 0  9993
2 64840  97.7708 270.7706 0006127  32.7763 327.3836 14.94097559 52108
LEMUR-2-KARENDARRELL    
1 64841U 25135BU  26156.17760001  .00007436  00000+0  60320-3 0  9994
2 64841  97.7674 272.4086 0008952 248.9793 111.0473 14.99928901 52219
LEMUR-2-LUCILLE-ROSE    
1 65403U 25135BV  26156.08505509  .00008650  00000+0  69935-3 0  9999
2 65403  97.7774 272.3199 0010624 330.2200  29.8417 14.99990484 46825
LEMUR-2-AFFIE-WAUWIE    
1 66295U 25248C   26152.48471986  .00015776  00000+0  59909-3 0  9992
2 66295  45.3867 200.0340 0009699 347.2049  12.8593 15.26700156 32190
LEMUR-2-DEANANDMAEVE    
1 66678U 25276N   26155.73803315  .00008107  00000+0  38391-3 0  9996
2 66678  97.4216 229.4227 0006782  53.1081 307.0774 15.19573072 28528
LEMUR-2-STAS-GORBUK     
1 66686U 25276W   26155.81560837  .00007250  00000+0  34702-3 0  9993
2 66686  97.4244 229.5536 0006270  53.5145 306.6666 15.19243364 28533
LEMUR-2-TEODOR          
1 66768U 25276DG  26155.74714130  .00007086  00000+0  32344-3 0  9990
2 66768  97.4148 229.7069 0001731 125.7864 234.3532 15.20909334 28556
LEMUR-2-LAILA           
1 66776U 25276DQ  26155.72285696  .00006350  00000+0  28833-3 0  9998
2 66776  97.4174 229.7960 0001386 147.7957 212.3364 15.21128517 28553
LEMUR-2-CELIJO-SB-PK    
1 66781U 25276DW  26155.69468176  .00008044  00000+0  65366-3 0  9990
2 66781  97.5287 226.8815 0008673 163.2293 196.9219 14.99818241 20758
